start=new Date('2022-08-12T00:00:00.000Z').valueOf();
sats=[{"OBJECT_ID":"2020-062AG","MEAN_MOTION_DDOT":"0.0000000000000","REF_FRAME":"TEME","TLE_LINE2":"2 46355  53.0560 119.2971 0001374  74.9123 285.2018 15.06387482107654","ECCENTRICITY":"0.00013740","SEMIMAJOR_AXIS":"6925.387","APOAPSIS":"548.203","COUNTRY_CODE":"US","DECAY_DATE":null,"PERIOD":"95.593","ELEMENT_SET_NO":"999","OBJECT_NAME":"STARLINK-1661","REV_AT_EPOCH":"10765","LAUNCH_DATE":"2020-09-03","PERIAPSIS":"546.300","INCLINATION":"53.0560","NORAD_CAT_ID":"46355","MEAN_ANOMALY":"285.2018","MEAN_ELEMENT_THEORY":"SGP4","TIME_SYSTEM":"UTC","FILE":"3534409","RCS_SIZE":"LARGE","BSTAR":"-0.00002512400000","RA_OF_ASC_NODE":"119.2971","CLASSIFICATION_TYPE":"U","TLE_LINE1":"1 46355U 20062AG  22223.73335592 -.00000655  00000-0 -25124-4 0  9997","EPOCH":"2022-08-11T17:36:01.951488","GP_ID":"210033209","SITE":"AFETR","EPHEMERIS_TYPE":"0","ARG_OF_PERICENTER":"74.9123","MEAN_MOTION":"15.06387482","OBJECT_TYPE":"PAYLOAD","CENTER_NAME":"EARTH","MEAN_MOTION_DOT":"-0.00000655"},{"CLASSIFICATION_TYPE":"U","RA_OF_ASC_NODE":"121.9153","BSTAR":"-0.00033340000000","FILE":"3534420","RCS_SIZE":"LARGE","TIME_SYSTEM":"UTC","MEAN_ELEMENT_THEORY":"SGP4","MEAN_ANOMALY":"273.4525","INCLINATION":"53.0558","NORAD_CAT_ID":"46356","PERIAPSIS":"546.140","LAUNCH_DATE":"2020-09-03","REV_AT_EPOCH":"10756","OBJECT_TYPE":"PAYLOAD","CENTER_NAME":"EARTH","MEAN_MOTION_DOT":"-0.00005243","MEAN_MOTION":"15.06394439","ARG_OF_PERICENTER":"86.6644","EPHEMERIS_TYPE":"0","SITE":"AFETR","GP_ID":"210033301","EPOCH":"2022-08-11T03:30:43.113312","TLE_LINE1":"1 46356U 20062AH  22223.14633233 -.00005243  00000-0 -33340-3 0  9992","SEMIMAJOR_AXIS":"6925.366","ECCENTRICITY":"0.00015750","TLE_LINE2":"2 46356  53.0558 121.9153 0001575  86.6644 273.4525 15.06394439107567","REF_FRAME":"TEME","MEAN_MOTION_DDOT":"0.0000000000000","OBJECT_ID":"2020-062AH","OBJECT_NAME":"STARLINK-1665","ELEMENT_SET_NO":"999","DECAY_DATE":null,"PERIOD":"95.592","COUNTRY_CODE":"US","APOAPSIS":"548.321"},{"ELEMENT_SET_NO":"999","OBJECT_NAME":"STARLINK-1666","COUNTRY_CODE":"US","APOAPSIS":"548.343","DECAY_DATE":null,"PERIOD":"95.593","ECCENTRICITY":"0.00015660","SEMIMAJOR_AXIS":"6925.394","OBJECT_ID":"2020-062AJ","TLE_LINE2":"2 46357  53.0550  98.9382 0001566  77.7082 282.4082 15.06385249107943","REF_FRAME":"TEME","MEAN_MOTION_DDOT":"0.0000000000000","ARG_OF_PERICENTER":"77.7082","EPHEMERIS_TYPE":"0","SITE":"AFETR","MEAN_MOTION_DOT":"-0.00000023","OBJECT_TYPE":"PAYLOAD","CENTER_NAME":"EARTH","MEAN_MOTION":"15.06385249","TLE_LINE1":"1 46357U 20062AJ  22223.80890386 -.00000023  00000-0  17349-4 0  9992","EPOCH":"2022-08-11T19:24:49.293504","GP_ID":"210041886","MEAN_ELEMENT_THEORY":"SGP4","TIME_SYSTEM":"UTC","MEAN_ANOMALY":"282.4082","INCLINATION":"53.0550","NORAD_CAT_ID":"46357","CLASSIFICATION_TYPE":"U","RA_OF_ASC_NODE":"98.9382","BSTAR":"0.00001734900000","FILE":"3534773","RCS_SIZE":"LARGE","PERIAPSIS":"546.174","REV_AT_EPOCH":"10794","LAUNCH_DATE":"2020-09-03"},{"PERIOD":"95.595","DECAY_DATE":null,"COUNTRY_CODE":"US","APOAPSIS":"548.551","OBJECT_NAME":"STARLINK-1690","ELEMENT_SET_NO":"999","TLE_LINE2":"2 46358  53.0555 120.2291 0001727  89.4258 270.6929 15.06353746107442","MEAN_MOTION_DDOT":"0.0000000000000","REF_FRAME":"TEME","OBJECT_ID":"2020-062AK","SEMIMAJOR_AXIS":"6925.490","ECCENTRICITY":"0.00017270","GP_ID":"210025593","EPOCH":"2022-08-11T12:33:30.893472","TLE_LINE1":"1 46358U 20062AK  22223.52327423  .00021208  00000-0  14402-2 0  9991","CENTER_NAME":"EARTH","OBJECT_TYPE":"PAYLOAD","MEAN_MOTION_DOT":"0.00021208","MEAN_MOTION":"15.06353746","ARG_OF_PERICENTER":"89.4258","SITE":"AFETR","EPHEMERIS_TYPE":"0","PERIAPSIS":"546.159","LAUNCH_DATE":"2020-09-03","REV_AT_EPOCH":"10744","RA_OF_ASC_NODE":"120.2291","CLASSIFICATION_TYPE":"U","FILE":"3534319","BSTAR":"0.00144020000000","RCS_SIZE":"LARGE","TIME_SYSTEM":"UTC","MEAN_ELEMENT_THEORY":"SGP4","NORAD_CAT_ID":"46358","INCLINATION":"53.0555","MEAN_ANOMALY":"270.6929"},{"ELEMENT_SET_NO":"999","OBJECT_NAME":"STARLINK-1707","COUNTRY_CODE":"US","APOAPSIS":"548.316","PERIOD":"95.593","DECAY_DATE":null,"ECCENTRICITY":"0.00015030","SEMIMAJOR_AXIS":"6925.410","OBJECT_ID":"2020-062AL","TLE_LINE2":"2 46359  53.0559  74.1403 0001503  71.6327 288.4825 15.06379806108281","REF_FRAME":"TEME","MEAN_MOTION_DDOT":"0.0000000000000","ARG_OF_PERICENTER":"71.6327","EPHEMERIS_TYPE":"0","SITE":"AFETR","MEAN_MOTION_DOT":"0.00001863","OBJECT_TYPE":"PAYLOAD","CENTER_NAME":"EARTH","MEAN_MOTION":"15.06379806","TLE_LINE1":"1 46359U 20062AL  22223.76882777  .00001863  00000-0  14400-3 0  9990","EPOCH":"2022-08-11T18:27:06.719328","GP_ID":"210033897","TIME_SYSTEM":"UTC","MEAN_ELEMENT_THEORY":"SGP4","MEAN_ANOMALY":"288.4825","INCLINATION":"53.0559","NORAD_CAT_ID":"46359","CLASSIFICATION_TYPE":"U","RA_OF_ASC_NODE":"74.1403","BSTAR":"0.00014400000000","FILE":"3534445","RCS_SIZE":"LARGE","PERIAPSIS":"546.235","REV_AT_EPOCH":"10828","LAUNCH_DATE":"2020-09-03"},{"EPOCH":"2022-08-11T18:59:01.767552","GP_ID":"210034188","TLE_LINE1":"1 46360U 20062AM  22223.79099268  .00040824  00000-0  27552-2 0  9991","CENTER_NAME":"EARTH","OBJECT_TYPE":"PAYLOAD","MEAN_MOTION_DOT":"0.00040824","MEAN_MOTION":"15.06245589","ARG_OF_PERICENTER":"130.6566","SITE":"AFETR","EPHEMERIS_TYPE":"0","PERIAPSIS":"547.001","LAUNCH_DATE":"2020-09-03","REV_AT_EPOCH":"10829","RA_OF_ASC_NODE":"74.0371","CLASSIFICATION_TYPE":"U","RCS_SIZE":"LARGE","FILE":"3534447","BSTAR":"0.00275520000000","MEAN_ELEMENT_THEORY":"SGP4","TIME_SYSTEM":"UTC","NORAD_CAT_ID":"46360","INCLINATION":"53.0556","MEAN_ANOMALY":"229.4509","PERIOD":"95.602","DECAY_DATE":null,"COUNTRY_CODE":"US","APOAPSIS":"548.373","OBJECT_NAME":"STARLINK-1713","ELEMENT_SET_NO":"999","TLE_LINE2":"2 46360  53.0556  74.0371 0000990 130.6566 229.4509 15.06245589108298","MEAN_MOTION_DDOT":"0.0000000000000","REF_FRAME":"TEME","OBJECT_ID":"2020-062AM","SEMIMAJOR_AXIS":"6925.822","ECCENTRICITY":"0.00009900"},{"SEMIMAJOR_AXIS":"6925.404","ECCENTRICITY":"0.00014650","TLE_LINE2":"2 46361  53.0531  74.1462 0001465  99.6040 260.5114 15.06381879108272","REF_FRAME":"TEME","MEAN_MOTION_DDOT":"0.0000000000000","OBJECT_ID":"2020-062AN","OBJECT_NAME":"STARLINK-1722","ELEMENT_SET_NO":"999","PERIOD":"95.593","DECAY_DATE":null,"COUNTRY_CODE":"US","APOAPSIS":"548.284","CLASSIFICATION_TYPE":"U","RA_OF_ASC_NODE":"74.1462","BSTAR":"0.00038645000000","FILE":"3534457","RCS_SIZE":"LARGE","MEAN_ELEMENT_THEORY":"SGP4","TIME_SYSTEM":"UTC","MEAN_ANOMALY":"260.5114","INCLINATION":"53.0531","NORAD_CAT_ID":"46361","PERIAPSIS":"546.255","LAUNCH_DATE":"2020-09-03","REV_AT_EPOCH":"10827","OBJECT_TYPE":"PAYLOAD","MEAN_MOTION_DOT":"0.00005477","CENTER_NAME":"EARTH","MEAN_MOTION":"15.06381879","ARG_OF_PERICENTER":"99.6040","EPHEMERIS_TYPE":"0","SITE":"AFETR","EPOCH":"2022-08-11T18:15:08.585856","GP_ID":"210034062","TLE_LINE1":"1 46361U 20062AN  22223.76051604  .00005477  00000-0  38645-3 0  9992"},{"SEMIMAJOR_AXIS":"6925.301","ECCENTRICITY":"0.00015740","TLE_LINE2":"2 46362  53.0551  75.1582 0001574  72.1077 288.0083 15.06415368108075","REF_FRAME":"TEME","MEAN_MOTION_DDOT":"0.0000000000000","OBJECT_ID":"2020-062AP","OBJECT_NAME":"STARLINK-1726","ELEMENT_SET_NO":"999","DECAY_DATE":null,"PERIOD":"95.591","COUNTRY_CODE":"US","APOAPSIS":"548.257","CLASSIFICATION_TYPE":"U","RA_OF_ASC_NODE":"75.1582","BSTAR":"-0.00038092000000","FILE":"3534319","RCS_SIZE":"LARGE","MEAN_ELEMENT_THEORY":"SGP4","TIME_SYSTEM":"UTC","MEAN_ANOMALY":"288.0083","INCLINATION":"53.0551","NORAD_CAT_ID":"46362","PERIAPSIS":"546.076","REV_AT_EPOCH":"10807","LAUNCH_DATE":"2020-09-03","OBJECT_TYPE":"PAYLOAD","CENTER_NAME":"EARTH","MEAN_MOTION_DOT":"-0.00005953","MEAN_MOTION":"15.06415368","ARG_OF_PERICENTER":"72.1077","EPHEMERIS_TYPE":"0","SITE":"AFETR","EPOCH":"2022-08-11T12:58:00.935040","GP_ID":"210026094","TLE_LINE1":"1 46362U 20062AP  22223.54028860 -.00005953  00000-0 -38092-3 0  9994"},{"ELEMENT_SET_NO":"999","OBJECT_NAME":"STARLINK-1739","COUNTRY_CODE":"US","APOAPSIS":"548.313","PERIOD":"95.593","DECAY_DATE":null,"ECCENTRICITY":"0.00015100","SEMIMAJOR_AXIS":"6925.403","OBJECT_ID":"2020-062AQ","TLE_LINE2":"2 46363  53.0541  73.9765 0001510  72.8604 287.2550 15.06382335108265","MEAN_MOTION_DDOT":"0.0000000000000","REF_FRAME":"TEME","ARG_OF_PERICENTER":"72.8604","SITE":"AFETR","EPHEMERIS_TYPE":"0","OBJECT_TYPE":"PAYLOAD","CENTER_NAME":"EARTH","MEAN_MOTION_DOT":"0.00000503","MEAN_MOTION":"15.06382335","TLE_LINE1":"1 46363U 20062AQ  22223.79737334  .00000503  00000-0  52670-4 0  9998","GP_ID":"210034382","EPOCH":"2022-08-11T19:08:13.056576","MEAN_ELEMENT_THEORY":"SGP4","TIME_SYSTEM":"UTC","NORAD_CAT_ID":"46363","INCLINATION":"53.0541","MEAN_ANOMALY":"287.2550","RA_OF_ASC_NODE":"73.9765","CLASSIFICATION_TYPE":"U","FILE":"3534463","BSTAR":"0.00005267000000","RCS_SIZE":"LARGE","PERIAPSIS":"546.222","REV_AT_EPOCH":"10826","LAUNCH_DATE":"2020-09-03"},{"OBJECT_NAME":"STARLINK-1763","ELEMENT_SET_NO":"999","PERIOD":"95.592","DECAY_DATE":null,"COUNTRY_CODE":"US","APOAPSIS":"548.158","SEMIMAJOR_AXIS":"6925.360","ECCENTRICITY":"0.00013460","TLE_LINE2":"2 46364  53.0553  56.8608 0001346 126.1567 233.9547 15.06396128108307","REF_FRAME":"TEME","MEAN_MOTION_DDOT":"0.0000000000000","OBJECT_ID":"2020-062AR","CENTER_NAME":"EARTH","OBJECT_TYPE":"PAYLOAD","MEAN_MOTION_DOT":"-0.00001173","MEAN_MOTION":"15.06396128","ARG_OF_PERICENTER":"126.1567","EPHEMERIS_TYPE":"0","SITE":"AFETR","GP_ID":"210025097","EPOCH":"2022-08-11T06:27:59.549472","TLE_LINE1":"1 46364U 20062AR  22223.26943923 -.00001173  00000-0 -59889-4 0  9999","CLASSIFICATION_TYPE":"U","RA_OF_ASC_NODE":"56.8608","RCS_SIZE":"LARGE","FILE":"3534319","BSTAR":"-0.00005988900000","TIME_SYSTEM":"UTC","MEAN_ELEMENT_THEORY":"SGP4","MEAN_ANOMALY":"233.9547","INCLINATION":"53.0553","NORAD_CAT_ID":"46364","PERIAPSIS":"546.293","LAUNCH_DATE":"2020-09-03","REV_AT_EPOCH":"10830"}];
